NORAD_CAT_ID,OBJECT_NAME,OBJECT_TYPE,EPOCH,MEAN_MOTION,ECCENTRICITY,INCLINATION,RA_OF_ASC_NODE,ARG_OF_PERICENTER,MEAN_ANOMALY,BSTAR,MEAN_MOTION_DOT,MEAN_MOTION_DDOT,TLE_LINE0,TLE_LINE1,TLE_LINE2,SEMIMAJOR_AXIS,PERIOD,APOGEE,PERIGEE,DECAYED
51472.0,STARLINK-3415,PAYLOAD,2022-05-03 22:00:00,15.08819706,0.0002102,53.2185,109.8653,44.16,237.6917,0.0022405,0.0003553,0.0,0 STARLINK-3415,1 51472U 22010S   22123.91667824  .00035530  00000-0  22405-2 0  9998,2 51472  53.2185 109.8653 0002102  44.1600 237.6917 15.08819706  3561,6917.941999999999,95.439,541.262,538.3530000000002,0.0
51472.0,STARLINK-3415,PAYLOAD,2022-05-04 06:00:02,15.08836414,0.0002309,53.2183,108.3708,41.5305,251.9721,-0.0001233,-2.25e-05,0.0,0 STARLINK-3415,1 51472U 22010S   22124.25002315 -.00002250  00000-0 -12330-3 0  9996,2 51472  53.2183 108.3708 0002309  41.5305 251.9721 15.08836414 15140,6917.891,95.438,541.354,538.159,0.0
51472.0,STARLINK-3415,PAYLOAD,2022-05-04 14:00:01,15.08859222,0.000226,53.2181,106.874,41.264,263.7613,-0.001963,-0.00031411,0.0,0 STARLINK-3415,1 51472U 22010S   22124.58334491 -.00031411  00000-0 -19630-2 0  9995,2 51472  53.2181 106.8740 0002260  41.2640 263.7613 15.08859222  3568,6917.821999999999,95.436,541.25,538.123,0.0
51472.0,STARLINK-3415,PAYLOAD,2022-05-04 22:00:01,15.08837313,0.0002148,53.2183,105.3766,46.645,270.04900000000004,0.0021498,0.0003409,0.0,0 STARLINK-3415,1 51472U 22010S   22124.91668981  .00034090  00000-0  21498-2 0  9995,2 51472  53.2183 105.3766 0002148  46.6450 270.0490 15.08837313  3612,6917.889,95.438,541.24,538.268,0.0
51472.0,STARLINK-3415,PAYLOAD,2022-05-05 06:00:00,15.08860398,0.0002322,53.2184,103.8823,42.3954,285.8428,-0.002713,-0.00043233,0.0,0 STARLINK-3415,1 51472U 22010S   22125.25001157 -.00043233  00000-0 -27130-2 0  9999,2 51472  53.2184 103.8823 0002322  42.3954 285.8428 15.08860398 15309,6917.818,95.436,541.289,538.077,0.0
51472.0,STARLINK-3415,PAYLOAD,2022-05-05 14:00:01,15.08847962,0.0002238,53.2181,102.3852,40.9997,298.8361,-0.0019796,-0.00031664,0.0,0 STARLINK-3415,1 51472U 22010S   22125.58334491 -.00031664  00000-0 -19796-2 0  9999,2 51472  53.2181 102.3852 0002238  40.9997 298.8361 15.08847962  3566,6917.856,95.437,541.269,538.173,0.0
51472.0,STARLINK-3415,PAYLOAD,2022-05-05 22:00:00,15.08827643,0.0002158,53.2185,100.8881,46.3508,305.0745,0.0018418,0.00029136,0.0,0 STARLINK-3415,1 51472U 22010S   22125.91667824  .00029136  00000-0  18418-2 0  9994,2 51472  53.2185 100.8881 0002158  46.3508 305.0745 15.08827643 15401,6917.918000000002,95.438,541.276,538.29,0.0
51472.0,STARLINK-3415,PAYLOAD,2022-05-06 14:00:01,15.08864196,0.0002276,53.2184,97.8964,41.538,333.075,-0.0043906,-0.0006954,0.0,0 STARLINK-3415,1 51472U 22010S   22126.58334491 -.00069540  00000-0 -43906-2 0  9994,2 51472  53.2184  97.8964 0002276  41.5380 333.0750 15.08864196 15505,6917.806,95.436,541.246,538.097,0.0
51472.0,STARLINK-3415,PAYLOAD,2022-05-07 06:00:02,15.08824387,0.0002412,53.2188,94.9049,42.4705,355.3830000000001,0.00075416,0.0001173,0.0,0 STARLINK-3415,1 51472U 22010S   22127.25002315  .00011730  00000-0  75416-3 0  9994,2 51472  53.2188  94.9049 0002412  42.4705 355.3830 15.08824387 15609,6917.928000000001,95.439,541.462,538.125,0.0
51472.0,STARLINK-3415,PAYLOAD,2022-05-07 14:00:01,15.08853636,0.0002332,53.2188,93.4075,43.0474,6.3257,-0.001653,-0.0002651,0.0,0 STARLINK-3415,1 51472U 22010S   22127.58334491 -.00026510  00000-0 -16530-2 0  9998,2 51472  53.2188  93.4075 0002332  43.0474   6.3257 15.08853636  3605,6917.839,95.437,541.317,538.09,0.0
51472.0,STARLINK-3415,PAYLOAD,2022-05-07 22:00:00,15.08849404,0.0002268,53.2192,91.9106,47.0616,13.9113,0.0010444,0.00016377,0.0,0 STARLINK-3415,1 51472U 22010S   22127.91667824  .00016377  00000-0  10444-2 0  9990,2 51472  53.2192  91.9106 0002268  47.0616  13.9113 15.08849404  3601,6917.852,95.437,541.286,538.148,0.0
51472.0,STARLINK-3415,PAYLOAD,2022-05-08 14:00:01,15.08844793,0.000231,53.2193,88.9186,43.3468,40.8285,-0.00144,-0.00023137,0.0,0 STARLINK-3415,1 51472U 22010S   22128.58334491 -.00023137  00000-0 -14400-2 0  9995,2 51472  53.2193  88.9186 0002310  43.3468  40.8285 15.08844793 15808,6917.866,95.437,541.3290000000002,538.133,0.0
51472.0,STARLINK-3415,PAYLOAD,2022-05-08 22:00:00,15.08846509,0.0002251,53.2196,87.4217,46.9445,48.8215,0.00047023,7.205e-05,0.0,0 STARLINK-3415,1 51472U 22010S   22128.91667824  .00007205  00000-0  47023-3 0  9995,2 51472  53.2196  87.4217 0002251  46.9445  48.8215 15.08846509  3601,6917.86,95.437,541.283,538.168,0.0
51472.0,STARLINK-3415,PAYLOAD,2022-05-09 14:00:01,15.08849462,0.0002334,53.2194,84.4296,44.0076,74.9866,-0.00091785,-0.00014871,0.0,0 STARLINK-3415,1 51472U 22010S   22129.58335648 -.00014871  00000-0 -91785-3 0  9998,2 51472  53.2194  84.4296 0002334  44.0076  74.9866 15.08849462 15958,6917.851,95.437,541.331,538.102,0.0
51472.0,STARLINK-3415,PAYLOAD,2022-05-09 22:00:00,15.08863256,0.0002271,53.2197,82.9329,47.2033,83.3248,-0.00056489,-9.273e-05,0.0,0 STARLINK-3415,1 51472U 22010S   22129.91667824 -.00009273  00000-0 -56489-3 0  9991,2 51472  53.2197  82.9329 0002271  47.2033  83.3248 15.08863256  3591,6917.809,95.436,541.245,538.1030000000002,0.0
51472.0,STARLINK-3415,PAYLOAD,2022-05-10 08:00:01,15.0882185,0.0002333,53.2192,81.0642,41.6164,193.4489,0.0019717,0.00031216,0.0,0 STARLINK-3415,1 51472U 22010S   22130.33334491  .00031216  00000-0  19717-2 0  9992,2 51472  53.2192  81.0642 0002333  41.6164 193.4489 15.08821850 16066,6917.936,95.439,541.415,538.187,0.0
51472.0,STARLINK-3415,PAYLOAD,2022-05-10 14:00:01,15.08842077,0.0002182,53.2194,79.9404,45.5306,108.2232,-0.0007412,-0.00012066,0.0,0 STARLINK-3415,1 51472U 22010S   22130.58334491 -.00012066  00000-0 -74120-3 0  9993,2 51472  53.2194  79.9404 0002182  45.5306 108.2232 15.08842077  3603,6917.874,95.437,541.249,538.23,0.0
51472.0,STARLINK-3415,PAYLOAD,2022-05-10 18:00:00,15.08816533,0.0002104,53.2192,79.1918,47.7924,291.7675,0.0034001999999999,0.00054208,0.0,0 STARLINK-3415,1 51472U 22010S   22130.75001157  .00054208  00000-0  34002-2 0  9998,2 51472  53.2192  79.1918 0002104  47.7924 291.7675 15.08816533  3570,6917.9519999999975,95.439,541.273,538.362,0.0
51472.0,STARLINK-3415,PAYLOAD,2022-05-11 22:00:00,15.08853662,0.000208,53.2193,73.9553,49.2512,150.8721,-0.00092814,-0.00015035,0.0,0 STARLINK-3415,1 51472U 22010S   22131.91667824 -.00015035  00000-0 -92814-3 0  9999,2 51472  53.2193  73.9553 0002080  49.2512 150.8721 15.08853662 16307,6917.839,95.437,541.143,538.265,0.0
51472.0,STARLINK-3415,PAYLOAD,2022-05-12 14:00:01,15.08824954,0.0002016,53.219,70.9626,46.4893,176.8314,0.00046766,7.159999999999999e-05,0.0,0 STARLINK-3415,1 51472U 22010S   22132.58334491  .00007160  00000-0  46766-3 0  9997,2 51472  53.2190  70.9626 0002016  46.4893 176.8314 15.08824954  1304,6917.926,95.439,541.186,538.3969999999998,0.0
51472.0,STARLINK-3415,PAYLOAD,2022-05-12 22:00:00,15.08857477,0.0002031,53.2191,69.4664,49.2051,185.7067,-0.00025055,-4.276e-05,0.0,0 STARLINK-3415,1 51472U 22010S   22132.91667824 -.00004276  00000-0 -25055-3 0  9998,2 51472  53.2191  69.4664 0002031  49.2051 185.7067 15.08857477  1304,6917.8269999999975,95.436,541.097,538.2869999999998,0.0
51472.0,STARLINK-3415,PAYLOAD,2022-05-13 06:00:00,15.08844118,0.000214,53.2191,67.9716,42.7281,203.7976,-0.00073616,-0.00011987,0.0,0 STARLINK-3415,1 51472U 22010S   22133.25001157 -.00011987  00000-0 -73616-3 0  9990,2 51472  53.2191  67.9716 0002140  42.7281 203.7976 15.08844118 16505,6917.868,95.437,541.2130000000002,538.252,0.0
51472.0,STARLINK-3415,PAYLOAD,2022-05-13 14:00:01,15.0877925,0.0001959,53.2184,66.4753,48.6374,209.4382,0.0027393,0.00043505,0.0,0 STARLINK-3415,1 51472U 22010S   22133.58334491  .00043505  00000-0  27393-2 0  9995,2 51472  53.2184  66.4753 0001959  48.6374 209.4382 15.08779250 16550,6918.066,95.441,541.286,538.576,0.0
51472.0,STARLINK-3415,PAYLOAD,2022-05-13 22:00:00,15.08840708,0.0002039,53.2177,64.9806,49.6673,219.9391,-0.0002196,-3.782e-05,0.0,0 STARLINK-3415,1 51472U 22010S   22133.91667824 -.00003782  00000-0 -21960-3 0  9991,2 51472  53.2177  64.9806 0002039  49.6673 219.9391 15.08840708  1307,6917.878000000002,95.438,541.154,538.3330000000002,0.0
51472.0,STARLINK-3415,PAYLOAD,2022-05-14 06:00:00,15.08792699,0.0002125,53.2195,63.483,47.6683,233.5112,0.0036117,0.00057588,0.0,0 STARLINK-3415,1 51472U 22010S   22134.25001157  .00057588  00000-0  36117-2 0  9990,2 51472  53.2195  63.4830 0002125  47.6683 233.5112 15.08792699 16655,6918.025,95.441,541.36,538.42,0.0
51472.0,STARLINK-3415,PAYLOAD,2022-05-14 14:00:01,15.08826708,0.0001973,53.2198,61.9849,51.9928,240.771,0.002267,0.00035963,0.0,0 STARLINK-3415,1 51472U 22010S   22134.58334491  .00035963  00000-0  22670-2 0  9998,2 51472  53.2198  61.9849 0001973  51.9928 240.7710 15.08826708  1300,6917.920999999999,95.438,541.151,538.4209999999998,0.0
51472.0,STARLINK-3415,PAYLOAD,2022-05-14 22:00:00,15.08880583,0.0002002,53.2195,60.4898,53.2044,251.1435,-0.0029044,-0.00046267,0.0,0 STARLINK-3415,1 51472U 22010S   22134.91667824 -.00046267  00000-0 -29044-2 0  9997,2 51472  53.2195  60.4898 0002002  53.2044 251.1435 15.08880583  1304,6917.755999999999,95.435,541.006,538.236,0.0
51472.0,STARLINK-3415,PAYLOAD,2022-05-15 06:00:00,15.08826719,0.0002061,53.2201,58.9943,46.624,269.3496,0.0021769,0.00034515,0.0,0 STARLINK-3415,1 51472U 22010S   22135.25001157  .00034515  00000-0  21769-2 0  9993,2 51472  53.2201  58.9943 0002061  46.6240 269.3496 15.08826719 16815,6917.920999999999,95.438,541.212,538.36,0.0
51472.0,STARLINK-3415,PAYLOAD,2022-05-15 14:00:01,15.08819584,0.000186,53.2204,57.4962,50.2925,277.3549,0.002212,0.00035072,0.0,0 STARLINK-3415,1 51472U 22010S   22135.58335648  .00035072  00000-0  22120-2 0  9995,2 51472  53.2204  57.4962 0001860  50.2925 277.3549 15.08819584  1308,6917.943,95.439,541.095,538.521,0.0
